STARLINK-32443          
1 61672U 24193M   26068.26730763 -.00000121  00000+0  80296-5 0  9991
2 61672  53.1593  92.8475 0001230  85.3759 274.7383 15.30193882 76465
TEVEL2-2                
1 63219U 25052K   26068.64848259  .00020339  00000+0  69428-3 0  9991
2 63219  97.3987 324.7700 0004693 105.7930 254.3828 15.30343745 54855
